[{"OBJECT_NAME":"STARLINK-32104","OBJECT_ID":"2024-086P","EPOCH":"2026-03-08T23:58:16.174848","MEAN_MOTION":15.27576384,"ECCENTRICITY":8.252e-5,"INCLINATION":43.0055,"RA_OF_ASC_NODE":60.5074,"ARG_OF_PERICENTER":257.127,"MEAN_ANOMALY":102.9489,"EPHEMERIS_TYPE":0,"CLASSIFICATION_TYPE":"U","NORAD_CAT_ID":59695,"ELEMENT_SET_NO":999,"REV_AT_EPOCH":10404,"BSTAR":-4.989614e-6,"MEAN_MOTION_DOT":-3.99e-6,"MEAN_MOTION_DDOT":0},{"OBJECT_NAME":"TEVEL2-1","OBJECT_ID":"2025-052H","EPOCH":"2026-03-09T15:32:51.927072","MEAN_MOTION":15.30341923,"ECCENTRICITY":0.0004767,"INCLINATION":97.3991,"RA_OF_ASC_NODE":324.7682,"ARG_OF_PERICENTER":104.8919,"MEAN_ANOMALY":255.2849,"EPHEMERIS_TYPE":0,"CLASSIFICATION_TYPE":"U","NORAD_CAT_ID":63217,"ELEMENT_SET_NO":999,"REV_AT_EPOCH":5485,"BSTAR":0.000706,"MEAN_MOTION_DOT":0.00020683,"MEAN_MOTION_DDOT":0}]
